GLOBALSTAR M057         
1 25943U 99058A   24342.58264168 -.00000057  00000+0  32285-3 0  9994
2 25943  51.9954 171.9687 0002496  14.5878 345.5043 12.24804503143451
GLOBALSTAR M059         
1 25944U 99058B   24342.52992969 -.00000020  00000+0  81384-3 0  9990
2 25944  52.0042   5.6645 0000094 211.9754 305.6588 11.99972742551037
GLOBALSTAR M056         
1 25945U 99058C   24342.46000807 -.00000125  00000+0 -43437-3 0  9999
2 25945  51.9988  12.7328 0001120 159.3943 339.3144 12.04776404139519
GLOBALSTAR M031         
1 25946U 99058D   24342.58914266  .00000037  00000+0  12904-2 0  9990
2 25946  51.9970 276.1841 0001448 117.7262  53.2023 12.16023843141237
GLOBALSTAR M039         
1 25961U 99062A   24342.54784999 -.00000070  00000+0  19033-3 0  9995
2 25961  51.9821 132.4050 0001574 283.5554  76.5137 12.62313174156017
GLOBALSTAR M034         
1 25962U 99062B   24342.49192104 -.00000050  00000+0  48722-3 0  9996
2 25962  51.9836 149.6817 0014739  43.6524 330.3120 11.79437144115776
GLOBALSTAR M029         
1 25963U 99062C   24342.52917781 -.00000043  00000+0  53376-3 0  9990
2 25963  51.9802 253.8686 0003290  89.0213  81.8172 11.99888530146119
GLOBALSTAR M061         
1 25964U 99062D   24342.51775951 -.00000067  00000+0  22085-3 0  9990
2 25964  51.9815 331.1074 0006126 327.0195 182.7227 11.76768512 98615
